{
  "type": "FeatureCollection",
  "features": [
    {
      "type": "Feature",
      "properties": {
        "norad_id": 40118,
        "name": "GAOFEN-2",
        "group": "resource",
        "lat": -33.80207118219323,
        "lon": 61.82450753448197,
        "alt_km": 636.4483544374452,
        "timestamp": "2025-12-23T05:02:11.680694+00:00",
        "meta_object_name": "GAOFEN-2",
        "meta_object_id": "2014-049A",
        "meta_epoch": "2025-12-22T22:42:10.888704",
        "meta_mean_motion": 14.80625805,
        "meta_eccentricity": 0.00087909,
        "meta_inclination": 98.0372,
        "meta_ra_of_asc_node": 56.132,
        "meta_arg_of_pericenter": 84.8055,
        "meta_mean_anomaly": 275.416,
        "meta_ephemeris_type": 0,
        "meta_classification_type": "U",
        "meta_norad_cat_id": 40118,
        "meta_element_set_no": 999,
        "meta_rev_at_epoch": 61315,
        "meta_bstar": 0.00011770043,
        "meta_mean_motion_dot": 8.5e-06,
        "meta_mean_motion_ddot": 0,
        "tle_line1": "1 40118U 14049A   25356.94595936  .00000850  00000+0  11770-3 0  9994",
        "tle_line2": "2 40118  98.0372  56.1320 0008790  84.8055 275.4160 14.80625805613156"
      },
      "geometry": {
        "type": "Point",
        "coordinates": [
          61.82450753448197,
          -33.80207118219323
        ]
      }
    },
    {
      "type": "Feature",
      "properties": {
        "norad_id": 40143,
        "name": "YAOGAN-21",
        "group": "resource",
        "lat": 67.43956675227433,
        "lon": -122.28404053572774,
        "alt_km": 489.3859780391722,
        "timestamp": "2025-12-23T05:02:11.680704+00:00",
        "meta_object_name": "YAOGAN-21",
        "meta_object_id": "2014-053A",
        "meta_epoch": "2025-12-22T23:49:18.226848",
        "meta_mean_motion": 15.23773079,
        "meta_eccentricity": 0.00087071,
        "meta_inclination": 97.1741,
        "meta_ra_of_asc_node": 39.8591,
        "meta_arg_of_pericenter": 8.0435,
        "meta_mean_anomaly": 352.094,
        "meta_ephemeris_type": 0,
        "meta_classification_type": "U",
        "meta_norad_cat_id": 40143,
        "meta_element_set_no": 999,
        "meta_rev_at_epoch": 62810,
        "meta_bstar": 0.00023389978,
        "meta_mean_motion_dot": 5.565e-05,
        "meta_mean_motion_ddot": 0,
        "tle_line1": "1 40143U 14053A   25356.99257207  .00005565  00000+0  23390-3 0  9997",
        "tle_line2": "2 40143  97.1741  39.8591 0008707   8.0435 352.0940 15.23773079628104"
      },
      "geometry": {
        "type": "Point",
        "coordinates": [
          -122.28404053572774,
          67.43956675227433
        ]
      }
    },
    {
      "type": "Feature",
      "properties": {
        "norad_id": 40275,
        "name": "YAOGAN-22",
        "group": "resource",
        "lat": 31.236048179360054,
        "lon": 134.16597494356853,
        "alt_km": 1204.4151630774468,
        "timestamp": "2025-12-23T05:02:11.680715+00:00",
        "meta_object_name": "YAOGAN-22",
        "meta_object_id": "2014-063A",
        "meta_epoch": "2025-12-22T19:44:55.689792",
        "meta_mean_motion": 13.15523021,
        "meta_eccentricity": 0.00060614,
        "meta_inclination": 100.7428,
        "meta_ra_of_asc_node": 140.3849,
        "meta_arg_of_pericenter": 224.1984,
        "meta_mean_anomaly": 135.8644,
        "meta_ephemeris_type": 0,
        "meta_classification_type": "U",
        "meta_norad_cat_id": 40275,
        "meta_element_set_no": 999,
        "meta_rev_at_epoch": 53662,
        "meta_bstar": 0.00010463176,
        "meta_mean_motion_dot": -7e-08,
        "meta_mean_motion_ddot": 0,
        "tle_line1": "1 40275U 14063A   25356.82286678 -.00000007  00000+0  10463-3 0  9994",
        "tle_line2": "2 40275 100.7428 140.3849 0006061 224.1984 135.8644 13.15523021536620"
      },
      "geometry": {
        "type": "Point",
        "coordinates": [
          134.16597494356853,
          31.236048179360054
        ]
      }
    },
    {
      "type": "Feature",
      "properties": {
        "norad_id": 40298,
        "name": "ASNARO",
        "group": "resource",
        "lat": 3.725806605890465,
        "lon": 72.41767157492676,
        "alt_km": 509.37250632866653,
        "timestamp": "2025-12-23T05:02:11.680724+00:00",
        "meta_object_name": "ASNARO",
        "meta_object_id": "2014-070A",
        "meta_epoch": "2025-12-22T22:41:56.307840",
        "meta_mean_motion": 15.19688865,
        "meta_eccentricity": 0.00057903,
        "meta_inclination": 97.3645,
        "meta_ra_of_asc_node": 72.6426,
        "meta_arg_of_pericenter": 95.0166,
        "meta_mean_anomaly": 265.173,
        "meta_ephemeris_type": 0,
        "meta_classification_type": "U",
        "meta_norad_cat_id": 40298,
        "meta_element_set_no": 999,
        "meta_rev_at_epoch": 61724,
        "meta_bstar": 0.00034710148,
        "meta_mean_motion_dot": 7.347e-05,
        "meta_mean_motion_ddot": 0,
        "tle_line1": "1 40298U 14070A   25356.94579060  .00007347  00000+0  34710-3 0  9994",
        "tle_line2": "2 40298  97.3645  72.6426 0005790  95.0166 265.1730 15.19688865617245"
      },
      "geometry": {
        "type": "Point",
        "coordinates": [
          72.41767157492676,
          3.725806605890465
        ]
      }
    },
    {
      "type": "Feature",
      "properties": {
        "norad_id": 40310,
        "name": "YAOGAN-24",
        "group": "resource",
        "lat": 36.33583522202448,
        "lon": -45.610309656937176,
        "alt_km": 630.2903722372293,
        "timestamp": "2025-12-23T05:02:11.680734+00:00",
        "meta_object_name": "YAOGAN-24",
        "meta_object_id": "2014-072A",
        "meta_epoch": "2025-12-22T23:30:40.118400",
        "meta_mean_motion": 14.76194808,
        "meta_eccentricity": 0.00151433,
        "meta_inclination": 98.123,
        "meta_ra_of_asc_node": 128.128,
        "meta_arg_of_pericenter": 107.3388,
        "meta_mean_anomaly": 252.9479,
        "meta_ephemeris_type": 0,
        "meta_classification_type": "U",
        "meta_norad_cat_id": 40310,
        "meta_element_set_no": 999,
        "meta_rev_at_epoch": 59772,
        "meta_bstar": 6.9492045e-05,
        "meta_mean_motion_dot": 4.29e-06,
        "meta_mean_motion_ddot": 0,
        "tle_line1": "1 40310U 14072A   25356.97963100  .00000429  00000+0  69492-4 0  9996",
        "tle_line2": "2 40310  98.1230 128.1280 0015143 107.3388 252.9479 14.76194808597725"
      },
      "geometry": {
        "type": "Point",
        "coordinates": [
          -45.610309656937176,
          36.33583522202448
        ]
      }
    },
    {
      "type": "Feature",
      "properties": {
        "norad_id": 40336,
        "name": "CBERS 4",
        "group": "resource",
        "lat": 26.607273195000133,
        "lon": -120.92346199349494,
        "alt_km": 771.5001442242046,
        "timestamp": "2025-12-23T05:02:11.680744+00:00",
        "meta_object_name": "CBERS 4",
        "meta_object_id": "2014-079A",
        "meta_epoch": "2025-12-22T23:18:28.511712",
        "meta_mean_motion": 14.35521227,
        "meta_eccentricity": 0.00018599,
        "meta_inclination": 98.3295,
        "meta_ra_of_asc_node": 54.6375,
        "meta_arg_of_pericenter": 101.4873,
        "meta_mean_anomaly": 258.6523,
        "meta_ephemeris_type": 0,
        "meta_classification_type": "U",
        "meta_norad_cat_id": 40336,
        "meta_element_set_no": 999,
        "meta_rev_at_epoch": 57867,
        "meta_bstar": 4.871098e-05,
        "meta_mean_motion_dot": 9.8e-07,
        "meta_mean_motion_ddot": 0,
        "tle_line1": "1 40336U 14079A   25356.97116333  .00000098  00000+0  48711-4 0  9992",
        "tle_line2": "2 40336  98.3295  54.6375 0001859 101.4873 258.6523 14.35521227578677"
      },
      "geometry": {
        "type": "Point",
        "coordinates": [
          -120.92346199349494,
          26.607273195000133
        ]
      }
    },
    {
      "type": "Feature",
      "properties": {
        "norad_id": 40362,
        "name": "YAOGAN-26",
        "group": "resource",
        "lat": 58.044686990012295,
        "lon": -13.953934752000382,
        "alt_km": 440.00832769496446,
        "timestamp": "2025-12-23T05:02:11.680755+00:00",
        "meta_object_name": "YAOGAN-26",
        "meta_object_id": "2014-088A",
        "meta_epoch": "2025-12-22T22:32:35.697984",
        "meta_mean_motion": 15.39649767,
        "meta_eccentricity": 0.00047669,
        "meta_inclination": 97.0637,
        "meta_ra_of_asc_node": 357.2511,
        "meta_arg_of_pericenter": 358.2369,
        "meta_mean_anomaly": 1.886,
        "meta_ephemeris_type": 0,
        "meta_classification_type": "U",
        "meta_norad_cat_id": 40362,
        "meta_element_set_no": 999,
        "meta_rev_at_epoch": 61051,
        "meta_bstar": 0.00075367427,
        "meta_mean_motion_dot": 0.00029734,
        "meta_mean_motion_ddot": 0,
        "tle_line1": "1 40362U 14088A   25356.93930206  .00029734  00000+0  75367-3 0  9994",
        "tle_line2": "2 40362  97.0637 357.2511 0004766 358.2369   1.8860 15.39649767610515"
      },
      "geometry": {
        "type": "Point",
        "coordinates": [
          -13.953934752000382,
          58.044686990012295
        ]
      }
    }
  ]
}